OBJECT_NAME,OBJECT_ID,EPOCH,MEAN_MOTION,ECCENTRICITY,INCLINATION,RA_OF_ASC_NODE,ARG_OF_PERICENTER,MEAN_ANOMALY,EPHEMERIS_TYPE,CLASSIFICATION_TYPE,NORAD_CAT_ID,ELEMENT_SET_NO,REV_AT_EPOCH,BSTAR,MEAN_MOTION_DOT,MEAN_MOTION_DDOT
STARLINK-30761,2023-162S,2026-07-01T18:37:05.155968,15.27576662,.00010762,43.0012,208.3006,277.2953,82.7777,0,U,58134,999,14975,.2832512E-4,.517E-5,0
STARLINK-30772,2023-162T,2026-07-01T18:14:52.840320,15.27583157,.00014257,43.0014,208.1932,269.4503,90.6185,0,U,58135,999,14975,.5878695E-4,.1356E-4,0
STARLINK-30776,2023-162U,2026-07-01T08:14:33.457056,15.43958541,.00146538,42.9908,203.2270,85.4021,274.8510,0,U,58136,999,14977,.29362052E-2,.139515E-2,0
STARLINK-30782,2023-162V,2026-07-01T18:40:47.277408,15.27580866,.00012043,43.0004,208.3303,272.1837,87.8876,0,U,58137,999,14975,.29669054E-4,.554E-5,0
STARLINK-30769,2023-162W,2026-07-01T11:34:13.179072,15.27582242,.00013596,43.0022,209.5472,274.5954,85.4743,0,U,58138,999,14971,.66890897E-4,.1579E-4,0
STARLINK-30775,2023-162X,2026-07-01T13:02:48.324768,15.27583832,.00013717,43.0016,209.1552,282.1550,77.9148,0,U,58139,999,14972,.5331324E-4,.1205E-4,0
STARLINK-30780,2023-162Y,2026-07-01T11:43:27.277824,15.27581369,.00014358,43.0008,209.5918,272.5778,87.4909,0,U,58140,999,14971,.42243773E-4,.901E-5,0
STARLINK-30802,2023-166A,2026-07-01T22:00:49.273344,15.31717674,.00013263,53.1636,48.6328,100.0816,260.0335,0,U,58150,999,15067,.72606968E-4,.189E-4,0
STARLINK-30834,2023-166B,2026-07-01T22:06:56.824992,15.30226689,.0001214,53.1575,49.1575,85.7683,274.3456,0,U,58151,999,15066,.91361519E-3,.2682E-3,0
STARLINK-30833,2023-166C,2026-07-02T01:42:23.197248,15.31680154,.00013396,53.1602,48.1699,104.9067,255.2083,0,U,58152,999,15069,-.86017771E-4,-.3032E-4,0
STARLINK-30831,2023-166D,2026-07-01T22:20:58.613280,15.31727633,.00009573,53.1600,48.7330,80.3421,279.7688,0,U,58153,999,15067,-.9415138E-5,-.657E-5,0
STARLINK-30797,2023-166E,2026-07-01T22:11:31.927776,15.30183760,.00013665,53.1607,49.1696,89.4444,270.6714,0,U,58154,999,15051,-.25479094E-4,-.1113E-4,0
STARLINK-30804,2023-166F,2026-07-01T22:07:32.649888,15.31725919,.00008745,53.1611,48.6701,69.2634,290.8461,0,U,58155,999,15067,.6571799E-5,-.161E-5,0
STARLINK-30784,2023-166G,2026-07-01T22:02:25.388160,15.30211790,.00012746,53.1603,49.3474,99.3507,260.7638,0,U,58156,999,15051,.10915257E-3,.2876E-4,0
STARLINK-30803,2023-166H,2026-07-01T21:27:13.105152,15.31718106,.00012083,53.1595,48.4805,82.9223,277.1916,0,U,58157,999,15052,.25590519E-4,.429E-5,0
STARLINK-30829,2023-166J,2026-07-01T22:14:16.034208,15.31718616,.00012858,53.1614,48.6991,100.3380,259.7766,0,U,58158,999,15067,.60566566E-4,.1516E-4,0
STARLINK-30788,2023-166K,2026-07-01T21:54:06.426432,15.31724858,.00011637,53.1587,48.6155,90.8421,269.2714,0,U,58159,999,15052,.17419353E-3,.5048E-4,0
STARLINK-30779,2023-166L,2026-07-01T21:47:23.501760,15.31688973,.00009533,53.1609,48.5881,88.1693,271.9418,0,U,58160,999,15067,.17632744E-3,.5109E-4,0
STARLINK-30773,2023-166M,2026-07-01T22:49:24.171744,15.30193967,.00010549,53.1601,48.8335,78.3725,281.7395,0,U,58161,999,15067,.23744182E-4,.344E-5,0
STARLINK-30816,2023-166N,2026-07-01T22:44:49.469856,15.30199025,.00012765,53.1613,48.8337,72.5379,287.5761,0,U,58162,999,15067,.42309784E-4,.894E-5,0
STARLINK-30763,2023-166P,2026-07-01T21:20:39.057216,15.30196505,.00016576,53.1618,36.5915,107.4814,252.6369,0,U,58163,999,15083,-.12372584E-4,-.726E-5,0
STARLINK-30815,2023-166Q,2026-07-01T21:33:56.308896,15.31715767,.00010329,53.1605,48.5345,63.4372,296.6736,0,U,58164,999,15067,.91021203E-4,.2462E-4,0
STARLINK-30814,2023-166R,2026-07-01T23:50:00.206880,15.30211227,.00013096,53.1578,48.4062,83.5126,276.6024,0,U,58165,999,15068,.30522171E-3,.8694E-4,0
STARLINK-30789,2023-166S,2026-07-01T21:19:52.914432,15.30203837,.00012835,53.1599,49.1765,87.9761,272.1386,0,U,58166,999,15066,.72468291E-4,.1788E-4,0
STARLINK-30811,2023-166T,2026-07-01T22:27:34.827264,15.31720616,.00009776,53.1600,48.0556,64.9244,295.1859,0,U,58167,999,15053,.68597203E-4,.1766E-4,0
STARLINK-30812,2023-166U,2026-07-01T22:20:30.054624,15.30222386,.00010405,53.1599,48.7292,98.7187,261.3932,0,U,58168,999,15052,-.9135132E-5,-.63E-5,0
STARLINK-30771,2023-166V,2026-07-01T22:40:15.479904,15.30205769,.00011652,53.1603,48.8121,94.6617,265.4516,0,U,58169,999,15067,.96538155E-4,.2502E-4,0
STARLINK-30764,2023-166W,2026-07-01T22:35:41.962560,15.30210268,.00012174,53.1616,48.7941,98.3282,261.7857,0,U,58170,999,15067,.97528788E-4,.2531E-4,0
STARLINK-30752,2023-166X,2026-07-01T22:31:08.527296,15.30214796,.00011754,53.1592,48.7647,102.0198,258.0935,0,U,58171,999,15067,.18518898E-3,.5132E-4,0
STARLINK-30753,2023-167A,2026-07-01T18:53:35.907360,15.27583253,.00007524,42.9986,219.1485,45.3055,314.7858,0,U,58175,999,14843,.927249E-4,.2291E-4,0
