STARLINK-30761          
1 58134U 23162S   26182.77575412  .00000517  00000+0  28325-4 0  9998
2 58134  43.0012 208.3006 0001076 277.2953  82.7777 15.27576662149752
STARLINK-30772          
1 58135U 23162T   26182.76033380  .00001356  00000+0  58787-4 0  9998
2 58135  43.0014 208.1932 0001425 269.4503  90.6185 15.27583157149751
STARLINK-30776          
1 58136U 23162U   26182.34344279  .00139515  00000+0  29362-2 0  9999
2 58136  42.9908 203.2270 0014653  85.4021 274.8510 15.43958541149772
STARLINK-30782          
1 58137U 23162V   26182.77832497  .00000554  00000+0  29669-4 0  9993
2 58137  43.0004 208.3303 0001204 272.1837  87.8876 15.27580866149751
STARLINK-30769          
1 58138U 23162W   26182.48209698  .00001579  00000+0  66891-4 0  9999
2 58138  43.0022 209.5472 0001359 274.5954  85.4743 15.27582242149712
STARLINK-30775          
1 58139U 23162X   26182.54361487  .00001205  00000+0  53313-4 0  9993
2 58139  43.0016 209.1552 0001371 282.1550  77.9148 15.27583832149724
STARLINK-30780          
1 58140U 23162Y   26182.48851016  .00000901  00000+0  42244-4 0  9993
2 58140  43.0008 209.5918 0001435 272.5778  87.4909 15.27581369149716
STARLINK-30802          
1 58150U 23166A   26182.91723696  .00001890  00000+0  72607-4 0  9992
2 58150  53.1636  48.6328 0001326 100.0816 260.0335 15.31717674150674
STARLINK-30834          
1 58151U 23166B   26182.92149103  .00026820  00000+0  91362-3 0  9997
2 58151  53.1575  49.1575 0001214  85.7683 274.3456 15.30226689150665
STARLINK-30833          
1 58152U 23166C   26183.07110182 -.00003032  00000+0 -86018-4 0  9995
2 58152  53.1602  48.1699 0001339 104.9067 255.2083 15.31680154150690
STARLINK-30831          
1 58153U 23166D   26182.93123395 -.00000657  00000+0 -94151-5 0  9998
2 58153  53.1600  48.7330 0000957  80.3421 279.7688 15.31727633150677
STARLINK-30797          
1 58154U 23166E   26182.92467509 -.00001113  00000+0 -25479-4 0  9990
2 58154  53.1607  49.1696 0001366  89.4444 270.6714 15.30183760150514
STARLINK-30804          
1 58155U 23166F   26182.92190567 -.00000161  00000+0  65718-5 0  9990
2 58155  53.1611  48.6701 0000874  69.2634 290.8461 15.31725919150670
STARLINK-30784          
1 58156U 23166G   26182.91834940  .00002876  00000+0  10915-3 0  9991
2 58156  53.1603  49.3474 0001274  99.3507 260.7638 15.30211790150516
STARLINK-30803          
1 58157U 23166H   26182.89390168  .00000429  00000+0  25591-4 0  9997
2 58157  53.1595  48.4805 0001208  82.9223 277.1916 15.31718106150521
STARLINK-30829          
1 58158U 23166J   26182.92657447  .00001516  00000+0  60567-4 0  9998
2 58158  53.1614  48.6991 0001285 100.3380 259.7766 15.31718616150677
STARLINK-30788          
1 58159U 23166K   26182.91257438  .00005048  00000+0  17419-3 0  9995
2 58159  53.1587  48.6155 0001163  90.8421 269.2714 15.31724858150521
STARLINK-30779          
1 58160U 23166L   26182.90791090  .00005109  00000+0  17633-3 0  9999
2 58160  53.1609  48.5881 0000953  88.1693 271.9418 15.31688973150674
STARLINK-30773          
1 58161U 23166M   26182.95097421  .00000344  00000+0  23744-4 0  9999
2 58161  53.1601  48.8335 0001054  78.3725 281.7395 15.30193967150670
STARLINK-30816          
1 58162U 23166N   26182.94779479  .00000894  00000+0  42310-4 0  9999
2 58162  53.1613  48.8337 0001276  72.5379 287.5761 15.30199025150675
STARLINK-30763          
1 58163U 23166P   26182.88934094 -.00000726  00000+0 -12373-4 0  9991
2 58163  53.1618  36.5915 0001657 107.4814 252.6369 15.30196505150837
STARLINK-30815          
1 58164U 23166Q   26182.89856839  .00002462  00000+0  91021-4 0  9997
2 58164  53.1605  48.5345 0001032  63.4372 296.6736 15.31715767150677
STARLINK-30814          
1 58165U 23166R   26182.99305795  .00008694  00000+0  30522-3 0  9990
2 58165  53.1578  48.4062 0001309  83.5126 276.6024 15.30211227150689
STARLINK-30789          
1 58166U 23166S   26182.88880688  .00001788  00000+0  72468-4 0  9991
2 58166  53.1599  49.1765 0001283  87.9761 272.1386 15.30203837150663
STARLINK-30811          
1 58167U 23166T   26182.93581976  .00001766  00000+0  68597-4 0  9990
2 58167  53.1600  48.0556 0000977  64.9244 295.1859 15.31720616150539
STARLINK-30812          
1 58168U 23166U   26182.93090341 -.00000630  00000+0 -91351-5 0  9998
2 58168  53.1599  48.7292 0001040  98.7187 261.3932 15.30222386150520
STARLINK-30771          
1 58169U 23166V   26182.94462361  .00002502  00000+0  96538-4 0  9994
2 58169  53.1603  48.8121 0001165  94.6617 265.4516 15.30205769150675
STARLINK-30764          
1 58170U 23166W   26182.94145790  .00002531  00000+0  97529-4 0  9993
2 58170  53.1616  48.7941 0001217  98.3282 261.7857 15.30210268150674
STARLINK-30752          
1 58171U 23166X   26182.93829314  .00005132  00000+0  18519-3 0  9995
2 58171  53.1592  48.7647 0001175 102.0198 258.0935 15.30214796150679
STARLINK-30753          
1 58175U 23167A   26182.78722115  .00002291  00000+0  92725-4 0  9999
2 58175  42.9986 219.1485 0000752  45.3055 314.7858 15.27583253148439
